#cP2024  9 19 18  0  0.00000000     577 d+D   IGS20 EXT AIUB
## 2332 410400.00000000   300.00000000 60572 0.7500000000000
+   79   G01G02G03G04G05G06G07G08G09G10G11G12G13G14G15G16G18
+        G19G20G21G22G23G24G25G26G27G29G30G31G32R01R02R03R04
+        R05R07R08R09R11R12R14R15R16R17R18R19R20R21R22R24R25
+        R26E02E03E04E05E06E07E08E09E10E11E12E13E14E15E18E19
+        E21E24E25E26E27E29E30E31E33E34E36  0  0  0  0  0  0
++         7  7  5  6  7  6  7  5  6  5  8  7  7  6  7  7  7
++         7  7  8  7  6  7  6  6  6  7  6  7  5  8  6  6  6
++         7  7  7  6  6  7  7  8  8  8  7  8  9  8  6  8  7
++         6  6  6  6  6  6  6  6  6  8  8  8  8  6  7  6  6
++         6  6  6  8  7  6  7  6  8  7  8  0  0  0  0  0  0
%c M  cc GPS ccc cccc cccc cccc cccc ccccc ccccc ccccc ccccc
%c cc cc ccc ccc cccc cccc cccc cccc ccccc ccccc ccccc ccccc
%f  1.2500000  1.025000000  0.00000000000  0.000000000000000
%f  0.0000000  0.000000000  0.00000000000  0.000000000000000
%i    0    0    0    0      0      0      0      0         0
%i    0    0    0    0      0      0      0      0         0
/* Center for Orbit Determination in Europe (CODE)          
/* Ultra-rapid GRE orbits starting year-day 24263 18 hour   
/* Observed/predicted: 24/24 hours (data used up to 264R)   
/* PCV:IGS20      OL/AL:FES2014b NONE     YN ORB:CoN CLK:BRD
*  2024  9 20  5 50  0.00000000
PG01   6037.844836  14431.419785 -21820.792791    193.307194
PG02  14222.598734  -7135.510031  21690.073838   -354.324564
PG03  23104.623056 -12840.138455   1716.328911    543.845958
PG04  18872.596415  -3708.007599 -18366.241572    446.981240
PG05 -21165.702779   1155.216311 -16229.854379   -187.178480
PG06  -5306.733267 -24836.253621  -7519.635534     18.590495
PG07   6806.672743 -22921.814599 -10527.599153    -35.810177
PG08  24651.059466   4815.886353   9166.146141    358.473728
PG09   9156.417572 -12431.153671 -21706.962534    364.063684
PG10    127.809710  16333.691240  21079.200121   -131.101928
PG11 -12633.298773 -14117.545706 -18613.065078   -736.489146
PG12 -24392.646067   9185.355122   4696.145707   -539.356043
PG13 -22576.544709 -13770.989686   3377.951569    677.421225
PG14   4017.291643 -18204.752981  18878.836225    499.573466
PG15 -24863.418734  -1763.486625   8885.609606    206.341893
PG16  19116.064848   4709.784833 -18369.507723   -176.271699
PG18  -6765.551127  23351.202881 -10402.002536   -654.325357
PG19 -14952.129987 -19260.150499  10881.009428    540.350697
PG20 -14046.972415  -7488.322335 -21170.404518    370.459708
PG21  15509.046168    250.021062  22010.793144    101.404135
PG22  -3744.736793 -15237.701557  21866.926504    -63.582404
PG23 -12828.870533  19030.681551  13198.573144    324.082672
PG24 -14938.986022   4943.620423  20920.032303   -486.513858
PG25 -18922.110693  17496.036292  -6170.027331    499.628019
PG26   9366.245186  12902.448819 -21400.090817     74.876258
PG27  23363.251741  13096.456511  -1036.398392    -33.891932
PG29 -12479.091738   9524.381931 -21484.956400   -576.696150
PG30   -140.090561 -26389.169321   -962.217227   -317.950959
PG31  11425.614624  17928.247263 -15910.948313   -224.478336
PG32   9454.587268  18347.379620  17044.764577   -595.423774
PR01 -17001.296797  -9526.875271 -16468.030635     98.365250
PR02 -25161.466918  -3867.495503   -781.570647    -24.743048
PR03 -19564.947690   4866.365410  15624.965604    107.899692
PR04  -3585.085885  10270.909466  23093.020120    255.541371
PR05  14364.090928  10557.527992  18261.982352    137.929482
PR07  19289.526114  -5014.720519 -15919.851369     91.256243
PR08   3303.310329 -10423.668766 -22993.625010     -6.396136
PR09  14579.731226  -2835.432490 -20692.752264    210.144231
PR11  11453.529965 -21469.694685   7632.235021     11.389865
PR12  -2860.420039 -13385.246034  21554.765318     45.058853
PR14 -17375.391602  16794.693869   8216.700336     26.938497
PR15 -10542.528553  21329.236887  -9186.799059     75.708794
PR16   2613.457633  13450.364671 -21511.169597     29.278372
PR17  -7639.265481   8772.319716 -22683.230509    123.582488
PR18   1752.977111  21392.803364 -13793.485022    162.918539
PR19   8774.489634  23941.308953    315.350516   -291.999087
PR20  12970.099656  10983.390492  19044.775938   -119.344160
PR21   7970.141038  -8032.354552  22867.957928   -135.954884
PR22  -1688.079055 -22037.120508  12760.938828     42.542763
PR24 -13778.522015  -9731.363509 -19125.071006    -72.749149
PR25   8047.746631  -9023.782383  22472.011859    -98.931887
PR26   4907.730495 -10165.445868 -22857.613551     34.104153
PE02 -11973.274844 -12473.052620  24025.327671    160.684552
PE03 -20597.214982 -19552.996010  -8376.421224   -141.568687
PE04  26540.131017   7645.688217 -10641.661623    -37.377830
PE05  -2677.831647 -19649.034778 -21979.299984   4785.776971
PE06  23395.093590   -587.391281 -18146.011294    -27.645075
PE07 -17202.540798   8002.338620  22720.395273   -143.015174
PE08 -26600.608704  -8367.858564   9938.730791   -338.435652
PE09  17179.474758  -7841.808712 -22795.156066   -596.320576
PE10  15551.845611  -8132.185050  23835.742946   -657.843750
PE11  12721.867348 -19090.737865  18695.660480   1597.485260
PE12  15928.552818   2756.899043  24794.681166  -1217.698515
PE13 -12874.779439  18567.642222 -19115.149326    -24.953875
PE14 -21833.007651 -20623.440882   7369.869781 999999.999999
PE15 -15789.515520  -3529.555097 -24780.582197   -128.207455
PE18  10743.296180  19452.834750 -12582.553448 999999.999999
PE19  19164.737519  20166.482159  10110.307735    650.124124
PE21  -8306.439895  20149.320451 -20025.331132   -617.839325
PE24  24528.339145 -16106.975023   3953.744516   -997.446266
PE25   8754.839192 -20204.862021  19791.561497      9.269339
PE26  -2169.910177  29454.195815  -1874.978014   -264.090894
PE27 -24404.857263  16233.704752  -4096.448497   -457.061051
PE29   3005.891835  19912.394418  21687.882075    -31.535345
PE30 -25935.303650   2724.216107  13990.873019   -735.317227
PE31  25911.704851  -2816.705963 -14020.723575    -36.476716
PE33   9159.420940  23509.744881  15469.899312     15.427352
PE34  -9432.231094 -23191.848265 -15807.617735   -135.359723
PE36   2514.697391 -29395.364602   2420.270996   -285.808784
EOF
